OBJECT_NAME,OBJECT_ID,EPOCH,MEAN_MOTION,ECCENTRICITY,INCLINATION,RA_OF_ASC_NODE,ARG_OF_PERICENTER,MEAN_ANOMALY,EPHEMERIS_TYPE,CLASSIFICATION_TYPE,NORAD_CAT_ID,ELEMENT_SET_NO,REV_AT_EPOCH,BSTAR,MEAN_MOTION_DOT,MEAN_MOTION_DDOT
STARLINK-36876,2026-035Z,2026-06-26T17:46:39.605952,15.33418585,.0001827,97.2835,110.8594,99.3473,260.7976,0,U,67902,999,2070,.82208E-3,.26537E-3,0
STARLINK-36257,2026-035AA,2026-06-26T16:59:40.555392,15.33421734,.0001723,97.2837,110.7488,100.5245,259.6191,0,U,67903,999,2069,.99653E-3,.32211E-3,0
STARLINK-36814,2026-036A,2026-06-26T12:48:07.786944,15.27568158,.0000449,43.0007,351.0073,302.9249,57.1559,0,U,67904,999,2036,.91095E-3,.24881E-3,0
STARLINK-36729,2026-036B,2026-06-26T12:44:25.305216,15.27575410,.0000812,42.9981,350.9721,254.0388,106.0374,0,U,67905,999,2036,.71462E-3,.19452E-3,0
STARLINK-36763,2026-036C,2026-06-26T12:38:52.088928,15.27555950,.0001166,43.0010,350.9386,242.9040,117.1693,0,U,67906,999,2036,.74455E-3,.20268E-3,0
STARLINK-36742,2026-036D,2026-06-26T04:42:31.292928,15.27603602,.00012604,42.9999,352.7565,281.3135,78.7575,0,U,67907,999,2031,.82388663E-3,.22495E-3,0
STARLINK-36827,2026-036E,2026-06-26T04:36:58.895712,15.27584287,.00008847,42.9995,352.7192,289.0441,71.0315,0,U,67908,999,2031,.79704826E-3,.21738E-3,0
STARLINK-36822,2026-036F,2026-06-26T04:31:25.401216,15.27602224,.00019693,43.0050,352.6938,274.1200,85.9427,0,U,67909,999,2031,.78062544E-3,.21296E-3,0
STARLINK-36847,2026-036G,2026-06-26T18:33:17.769312,15.27561587,.0001479,43.0021,349.3407,279.0359,81.0325,0,U,67910,999,2040,.83688E-3,.22825E-3,0
STARLINK-36736,2026-036H,2026-06-26T12:07:24.342240,15.27565765,.000172,43.0015,350.7570,271.7195,88.3459,0,U,67911,999,2036,.11154E-3,.2807E-4,0
STARLINK-36676,2026-036J,2026-06-26T18:18:29.475360,15.27559343,.0001577,43.0005,349.2531,277.2924,82.7749,0,U,67912,999,2040,.86622E-3,.23636E-3,0
STARLINK-36690,2026-036K,2026-06-26T18:12:56.209824,15.27574092,.0000814,43.0005,349.2204,251.2426,108.8338,0,U,67913,999,2040,.82903E-3,.22617E-3,0
STARLINK-36724,2026-036L,2026-06-26T17:58:07.915872,15.27574057,.0001932,43.0019,349.1446,274.1666,85.8965,0,U,67914,999,2040,.78854E-3,.21496E-3,0
STARLINK-36723,2026-036M,2026-06-26T18:07:23.232000,15.27565215,.0001827,43.0008,349.1881,272.8824,87.1819,0,U,67915,999,2040,.81261E-3,.22157E-3,0
STARLINK-36721,2026-036N,2026-06-26T17:52:35.563584,15.27590964,.0001895,43.0021,349.1153,281.7785,78.2854,0,U,67916,999,2040,.47433E-3,.12818E-3,0
STARLINK-36722,2026-036P,2026-06-26T17:47:01.992192,15.27595727,.0001805,43.0019,349.0780,281.7062,78.3587,0,U,67917,999,2040,.92514E-3,.25296E-3,0
STARLINK-36341,2026-036Q,2026-06-25T22:42:33.386400,15.27597738,.00011855,43.0027,354.3288,279.3002,80.7715,0,U,67918,999,2027,.77078646E-3,.2102E-3,0
STARLINK-36663,2026-036R,2026-06-26T05:08:13.079328,15.27600297,.0002289,43.0044,352.0100,281.4010,78.6584,0,U,67919,999,2032,.93778E-3,.2565E-3,0
STARLINK-36375,2026-036S,2026-06-26T12:40:42.877056,15.27558274,.0001343,43.0012,350.9406,248.2591,111.8118,0,U,67920,999,2036,.75067E-3,.20438E-3,0
STARLINK-36405,2026-036T,2026-06-26T12:35:09.964032,15.27562533,.0001462,43.0026,350.9234,281.3699,78.6989,0,U,67921,999,2036,-.16956E-4,-.728E-5,0
STARLINK-36406,2026-036V,2026-06-26T04:33:17.802432,15.27565856,.00016507,42.9978,352.7148,65.7788,294.3236,0,U,67923,999,2031,.78427392E-3,.21373E-3,0
STARLINK-36714,2026-036W,2026-06-26T18:35:08.331072,15.27567714,.0001672,43.0010,349.3421,257.2733,102.7932,0,U,67924,999,2040,.88365E-3,.24125E-3,0
STARLINK-36726,2026-036X,2026-06-26T18:25:53.738112,15.27559580,.0001478,43.0021,349.3039,277.9580,82.1104,0,U,67925,999,2040,.81729E-3,.22282E-3,0
STARLINK-36758,2026-036Y,2026-06-26T04:12:55.099008,15.27587298,.00009906,43.0016,352.5879,309.9358,50.1407,0,U,67926,999,2031,.34322503E-3,.9197E-4,0
STARLINK-36728,2026-036Z,2026-06-26T18:09:12.843360,15.27621959,.0000802,43.0008,349.1970,235.6026,124.4750,0,U,67927,999,2040,.95228E-3,.26069E-3,0
STARLINK-36771,2026-036AA,2026-06-26T04:07:23.058624,15.27564451,.00016049,42.9980,352.5557,26.7151,333.3783,0,U,67928,999,2031,.68353487E-3,.18586E-3,0
STARLINK-36809,2026-036AB,2026-06-26T18:03:41.408640,15.27572839,.0001152,43.0008,349.1732,269.6623,90.4096,0,U,67929,999,2040,.8794E-3,.24011E-3,0
STARLINK-36865,2026-036AC,2026-06-26T17:48:52.540992,15.27567032,.0002378,43.0015,349.0871,272.6434,87.4146,0,U,67930,999,2040,.81664E-3,.2227E-3,0
STARLINK-36781,2026-036AD,2026-06-26T17:54:25.911072,15.27582226,.0000577,42.9990,349.1215,307.8426,52.2373,0,U,67931,999,2040,.54205E-3,.14685E-3,0
STARLINK-36301,2026-037A,2026-06-26T17:45:55.821024,15.27580515,.0001802,43.0012,295.2890,275.8061,84.2585,0,U,67932,999,2001,.71399E-3,.19438E-3,0
