STARLINK-36876          
1 67902U 26035Z   26177.74073618  .00026537  00000+0  82208-3 0  9994
2 67902  97.2835 110.8594 0001827  99.3473 260.7976 15.33418585 20700
STARLINK-36257          
1 67903U 26035AA  26177.70810828  .00032211  00000+0  99653-3 0  9991
2 67903  97.2837 110.7488 0001723 100.5245 259.6191 15.33421734 20695
STARLINK-36814          
1 67904U 26036A   26177.53342346  .00024881  00000+0  91095-3 0  9995
2 67904  43.0007 351.0073 0000449 302.9249  57.1559 15.27568158 20368
STARLINK-36729          
1 67905U 26036B   26177.53084844  .00019452  00000+0  71462-3 0  9996
2 67905  42.9981 350.9721 0000812 254.0388 106.0374 15.27575410 20369
STARLINK-36763          
1 67906U 26036C   26177.52699177  .00020268  00000+0  74455-3 0  9999
2 67906  43.0010 350.9386 0001166 242.9040 117.1693 15.27555950 20360
STARLINK-36742          
1 67907U 26036D   26177.19619552  .00022495  00000+0  82389-3 0  9991
2 67907  42.9999 352.7565 0001260 281.3135  78.7575 15.27603602 20315
STARLINK-36827          
1 67908U 26036E   26177.19234833  .00021738  00000+0  79705-3 0  9994
2 67908  42.9995 352.7192 0000884 289.0441  71.0315 15.27584287 20319
STARLINK-36822          
1 67909U 26036F   26177.18848844  .00021296  00000+0  78063-3 0  9992
2 67909  43.0050 352.6938 0001969 274.1200  85.9427 15.27602224 20314
STARLINK-36847          
1 67910U 26036G   26177.77312233  .00022825  00000+0  83688-3 0  9995
2 67910  43.0021 349.3407 0001479 279.0359  81.0325 15.27561587 20403
STARLINK-36736          
1 67911U 26036H   26177.50514285  .00002807  00000+0  11154-3 0  9995
2 67911  43.0015 350.7570 0001720 271.7195  88.3459 15.27565765 20365
STARLINK-36676          
1 67912U 26036J   26177.76284115  .00023636  00000+0  86622-3 0  9995
2 67912  43.0005 349.2531 0001577 277.2924  82.7749 15.27559343 20406
STARLINK-36690          
1 67913U 26036K   26177.75898391  .00022617  00000+0  82903-3 0  9998
2 67913  43.0005 349.2204 0000814 251.2426 108.8338 15.27574092 20408
STARLINK-36724          
1 67914U 26036L   26177.74870273  .00021496  00000+0  78854-3 0  9991
2 67914  43.0019 349.1446 0001932 274.1666  85.8965 15.27574057 20404
STARLINK-36723          
1 67915U 26036M   26177.75513000  .00022157  00000+0  81261-3 0  9996
2 67915  43.0008 349.1881 0001827 272.8824  87.1819 15.27565215 20409
STARLINK-36721          
1 67916U 26036N   26177.74485606  .00012818  00000+0  47433-3 0  9992
2 67916  43.0021 349.1153 0001895 281.7785  78.2854 15.27590964 20406
STARLINK-36722          
1 67917U 26036P   26177.74099528  .00025296  00000+0  92514-3 0  9991
2 67917  43.0019 349.0780 0001805 281.7062  78.3587 15.27595727 20404
STARLINK-36341          
1 67918U 26036Q   26176.94621975  .00021020  00000+0  77079-3 0  9990
2 67918  43.0027 354.3288 0001185 279.3002  80.7715 15.27597738 20273
STARLINK-36663          
1 67919U 26036R   26177.21404027  .00025650  00000+0  93778-3 0  9996
2 67919  43.0044 352.0100 0002289 281.4010  78.6584 15.27600297 20321
STARLINK-36375          
1 67920U 26036S   26177.52827404  .00020438  00000+0  75067-3 0  9990
2 67920  43.0012 350.9406 0001343 248.2591 111.8118 15.27558274 20363
STARLINK-36405          
1 67921U 26036T   26177.52442088 -.00000728  00000+0 -16956-4 0  9997
2 67921  43.0026 350.9234 0001462 281.3699  78.6989 15.27562533 20366
STARLINK-36406          
1 67923U 26036V   26177.18978938  .00021373  00000+0  78427-3 0  9996
2 67923  42.9978 352.7148 0001650  65.7788 294.3236 15.27565856 20316
STARLINK-36714          
1 67924U 26036W   26177.77440198  .00024125  00000+0  88365-3 0  9994
2 67924  43.0010 349.3421 0001672 257.2733 102.7932 15.27567714 20404
STARLINK-36726          
1 67925U 26036X   26177.76798308  .00022282  00000+0  81729-3 0  9992
2 67925  43.0021 349.3039 0001478 277.9580  82.1104 15.27559580 20409
STARLINK-36758          
1 67926U 26036Y   26177.17563772  .00009197  00000+0  34323-3 0  9991
2 67926  43.0016 352.5879 0000990 309.9358  50.1407 15.27587298 20317
STARLINK-36728          
1 67927U 26036Z   26177.75639865  .00026069  00000+0  95228-3 0  9991
2 67927  43.0008 349.1970 0000802 235.6026 124.4750 15.27621959 20401
STARLINK-36771          
1 67928U 26036AA  26177.17179466  .00018586  00000+0  68353-3 0  9998
2 67928  42.9980 352.5557 0001604  26.7151 333.3783 15.27564451 20317
STARLINK-36809          
1 67929U 26036AB  26177.75256260  .00024011  00000+0  87940-3 0  9994
2 67929  43.0008 349.1732 0001152 269.6623  90.4096 15.27572839 20405
STARLINK-36865          
1 67930U 26036AC  26177.74227478  .00022270  00000+0  81664-3 0  9996
2 67930  43.0015 349.0871 0002378 272.6434  87.4146 15.27567032 20404
STARLINK-36781          
1 67931U 26036AD  26177.74613323  .00014685  00000+0  54205-3 0  9997
2 67931  42.9990 349.1215 0000577 307.8426  52.2373 15.27582226 20403
STARLINK-36301          
1 67932U 26037A   26177.74022941  .00019438  00000+0  71399-3 0  9993
2 67932  43.0012 295.2890 0001802 275.8061  84.2585 15.27580515 20018
